GLOBALSTAR M068         
1 32266U 07048D   25132.93355405 -.00000062  00000+0  23349-3 0  9997
2 32266  51.9901  49.7193 0001620  58.5959  20.3865 12.62822989813105
GLOBALSTAR M079         
1 37188U 10054A   25133.24500282 -.00000083  00000+0  11314-3 0  9998
2 37188  52.0036 246.1542 0000700 153.3314 215.2451 12.62273998672729
GLOBALSTAR M074         
1 37189U 10054B   25132.82608803 -.00000087  00000+0  93312-4 0  9993
2 37189  52.0014 246.7591 0000435 124.9889  17.7470 12.62274861672593
GLOBALSTAR M076         
1 37190U 10054C   25132.77653237 -.00000090  00000+0  78443-4 0  9992
2 37190  52.0025 247.0759 0000421 153.6548   4.8465 12.62262495672303
GLOBALSTAR M077         
1 37191U 10054D   25132.68625685 -.00000062  00000+0  23406-3 0  9996
2 37191  52.0060 204.1992 0000321 140.5834  26.8156 12.62268004672660
GLOBALSTAR M075         
1 37192U 10054E   25132.86767012 -.00000093  00000+0  61413-4 0  9993
2 37192  51.9951 289.0766 0000727 107.0598  45.2611 12.62264651671387
GLOBALSTAR M073         
1 37193U 10054F   25132.63032991 -.00000064  00000+0  22468-3 0  9994
2 37193  52.0048 203.5927 0000329 162.2468 350.0592 12.62271387673396
GLOBALSTAR M083         
1 37739U 11033A   25132.80597492 -.00000106  00000+0 -15056-4 0  9993
2 37739  51.9837 151.8363 0000259 126.8676  44.2311 12.62263713642384
GLOBALSTAR M088         
1 37740U 11033B   25132.82905803 -.00000114  00000+0 -54998-4 0  9993
2 37740  51.9745  57.2829 0000616  68.9855 328.2842 12.62265929637932
GLOBALSTAR M091         
1 37741U 11033C   25132.85140045 -.00000086  00000+0  10184-3 0  9991
2 37741  52.0021  20.7098 0000919  93.1998 344.8214 12.62267773638723
GLOBALSTAR M085         
1 37742U 11033D   25133.01455774 -.00000095  00000+0  47990-4 0  9995
2 37742  51.9881 331.2835 0000971 105.7101  54.3898 12.62268320639742
GLOBALSTAR M081         
1 37743U 11033E   25132.87013461 -.00000081  00000+0  12514-3 0  9990
2 37743  51.9974 334.4896 0000767 109.1198 353.6623 12.62263727639382
GLOBALSTAR M089         
1 37744U 11033F   25132.73147767 -.00000105  00000+0 -68671-5 0  9998
2 37744  51.9933 289.1443 0000531 100.1249 273.4387 12.62269744640214
GLOBALSTAR M084         
1 38040U 11080A   25132.77962395 -.00000078  00000+0  14276-3 0  9994
2 38040  51.9982 156.2675 0000224 336.6236 194.9370 12.62266090618192
GLOBALSTAR M080         
1 38041U 11080B   25132.83007995 -.00000075  00000+0  15784-3 0  9990
2 38041  52.0033 157.6927 0000595  92.7770  78.2825 12.62262897618326
GLOBALSTAR M082         
1 38042U 11080C   25132.89490519 -.00000115  00000+0 -60493-4 0  9999
2 38042  52.0053 112.9508 0000607  86.7756 309.2211 12.62266190619045
GLOBALSTAR M092         
1 38043U 11080D   25132.97743456 -.00000068  00000+0  19858-3 0  9994
2 38043  52.0071 203.0764 0000307 126.8934  44.5356 12.62264285617504
GLOBALSTAR M090         
1 38044U 11080E   25133.23290865 -.00000115  00000+0 -62745-4 0  9994
2 38044  51.9867 105.7742 0000382  79.4317 293.5182 12.62270221619244
GLOBALSTAR M086         
1 38045U 11080F   25132.96034433 -.00000105  00000+0 -41032-5 0  9997
2 38045  51.9879 107.1522 0000617 243.7218 210.4776 12.62270799619110
GLOBALSTAR M097         
1 39072U 13005A   25133.12455688 -.00000094  00000+0  53754-4 0  9994
2 39072  52.0072  21.1646 0000643  94.7409 265.3531 12.62271905566462
GLOBALSTAR M093         
1 39073U 13005B   25132.93966072 -.00000086  00000+0  10136-3 0  9994
2 39073  51.9836  15.0860 0000720  94.0010 266.0939 12.62264494566315
GLOBALSTAR M094         
1 39074U 13005C   25132.70215069 -.00000102  00000+0  85856-5 0  9995
2 39074  51.9963 290.1568 0000881 130.5357 229.5586 12.62270769567894
GLOBALSTAR M096         
1 39075U 13005D   25132.87378953 -.00000094  00000+0  53060-4 0  9997
2 39075  52.0092 338.1224 0000964 110.4444 249.6526 12.62271186566832
GLOBALSTAR M078         
1 39076U 13005E   25132.92632230 -.00000097  00000+0  38578-4 0  9995
2 39076  51.9883  62.5156 0001407  88.8978 271.2050 12.62261751565462
GLOBALSTAR M095         
1 39077U 13005F   25133.19031352 -.00000108  00000+0 -23401-4 0  9997
2 39077  51.9812  58.9260 0000893  98.3210 261.7758 12.62269508565718
GLOBALSTAR M087         
1 52888U 22064A   25132.90420192 -.00000073  00000+0  16916-3 0  9991
2 52888  51.9980 201.2172 0000465 136.0733 224.0171 12.62263011140587
